FLOCK 4Q-7              
1 58318U 23174BQ  26065.19553110  .00038528  00000+0  71199-3 0  9991
2 58318  97.3938 153.6912 0007961 150.4451 209.7251 15.48939155129778
FLOCK 4Q-2              
1 58320U 23174BS  26065.24344251  .00026189  00000+0  55960-3 0  9992
2 58320  97.3866 151.5935 0008013 149.3044 210.8675 15.44790728129687
FLOCK 4Q-9              
1 58322U 23174BU  26065.19684210  .00030126  00000+0  65052-3 0  9999
2 58322  97.3903 151.5898 0008100 150.8155 209.3547 15.44451921129664
FLOCK 4Q-4              
1 58327U 23174BZ  26065.19754682  .00027036  00000+0  59193-3 0  9990
2 58327  97.3860 150.9680 0007521 167.9248 192.2182 15.44067875129645
FLOCK 4Q-13             
1 58328U 23174CA  26065.23795232  .00032035  00000+0  63986-3 0  9992
2 58328  97.4022 153.4059 0007583 162.1816 197.9701 15.46733465129737
FLOCK 4Q-21             
1 58329U 23174CB  26065.23422589  .00052112  00000+0  71951-3 0  9994
2 58329  97.3939 156.4344 0005930 168.2056 191.9339 15.57001369129959
FLOCK 4BE-18            
1 60480U 24149N   26065.22966123  .00022157  00000+0  59182-3 0  9992
2 60480  97.3778 148.1398 0003133 255.7322 104.3575 15.38107795 86466
FLOCK 4BE-7             
1 60481U 24149P   26065.17446280  .00017607  00000+0  50199-3 0  9997
2 60481  97.3809 147.6810 0002093 246.3206 113.7819 15.36127526 86418
FLOCK 4BE-26            
1 60484U 24149S   26065.19133775  .00091267  00000+0  20172-2 0  9995
2 60484  97.3770 147.9950 0005969 250.6553 109.4050 15.43486631 86450
FLOCK 4BE-36            
1 60486U 24149U   26065.19566981  .00022142  00000+0  57515-3 0  9994
2 60486  97.3789 148.6469 0002802 269.8244  90.2681 15.38968749 86497
FLOCK 4BE-25            
1 60487U 24149V   26065.18773070  .00016043  00000+0  46165-3 0  9995
2 60487  97.3848 147.8434 0001375 233.2605 126.8513 15.35857462 86415
FLOCK 4BE-31            
1 60488U 24149W   26065.16642316  .00023619  00000+0  59779-3 0  9994
2 60488  97.3845 149.2333 0001752 262.7786  97.3260 15.39754394 86508
FLOCK 4BE-20            
1 60489U 24149X   26065.16429017  .00015823  00000+0  46587-3 0  9997
2 60489  97.3751 146.9572 0002496 261.0066  99.0895 15.35138508 86392
FLOCK 4BE-23            
1 60490U 24149Y   26065.19536604  .00016564  00000+0  49308-3 0  9990
2 60490  97.3831 147.3080 0002133 273.0420  87.0579 15.34781487 86381
FLOCK 4BE-15            
1 60491U 24149Z   26065.20144274  .00080034  00000+0  20075-2 0  9993
2 60491  97.3769 148.3429 0003035 318.7702  41.3314 15.39726736 86484
FLOCK 4BE-17            
1 60492U 24149AA  26065.17808745  .00018135  00000+0  51094-3 0  9999
2 60492  97.3821 147.9613 0002168 250.0725 110.0286 15.36492634 86423
