[{"OBJECT_NAME":"FLOCK 4Q-7","OBJECT_ID":"2023-174BQ","EPOCH":"2026-03-06T04:41:33.887040","MEAN_MOTION":15.48939155,"ECCENTRICITY":0.00079618,"INCLINATION":97.3938,"RA_OF_ASC_NODE":153.6912,"ARG_OF_PERICENTER":150.4451,"MEAN_ANOMALY":209.7251,"EPHEMERIS_TYPE":0,"CLASSIFICATION_TYPE":"U","NORAD_CAT_ID":58318,"ELEMENT_SET_NO":999,"REV_AT_EPOCH":12977,"BSTAR":0.00071199451,"MEAN_MOTION_DOT":0.00038528,"MEAN_MOTION_DDOT":0},{"OBJECT_NAME":"FLOCK 4Q-2","OBJECT_ID":"2023-174BS","EPOCH":"2026-03-06T05:50:33.432864","MEAN_MOTION":15.44790728,"ECCENTRICITY":0.00080137,"INCLINATION":97.3866,"RA_OF_ASC_NODE":151.5935,"ARG_OF_PERICENTER":149.3044,"MEAN_ANOMALY":210.8675,"EPHEMERIS_TYPE":0,"CLASSIFICATION_TYPE":"U","NORAD_CAT_ID":58320,"ELEMENT_SET_NO":999,"REV_AT_EPOCH":12968,"BSTAR":0.00055960248,"MEAN_MOTION_DOT":0.00026189,"MEAN_MOTION_DDOT":0},{"OBJECT_NAME":"FLOCK 4Q-9","OBJECT_ID":"2023-174BU","EPOCH":"2026-03-06T04:43:27.157440","MEAN_MOTION":15.44451921,"ECCENTRICITY":0.00081006,"INCLINATION":97.3903,"RA_OF_ASC_NODE":151.5898,"ARG_OF_PERICENTER":150.8155,"MEAN_ANOMALY":209.3547,"EPHEMERIS_TYPE":0,"CLASSIFICATION_TYPE":"U","NORAD_CAT_ID":58322,"ELEMENT_SET_NO":999,"REV_AT_EPOCH":12966,"BSTAR":0.00065052425,"MEAN_MOTION_DOT":0.00030126,"MEAN_MOTION_DDOT":0},{"OBJECT_NAME":"FLOCK 4Q-4","OBJECT_ID":"2023-174BZ","EPOCH":"2026-03-06T04:44:28.045248","MEAN_MOTION":15.44067875,"ECCENTRICITY":0.00075215,"INCLINATION":97.386,"RA_OF_ASC_NODE":150.968,"ARG_OF_PERICENTER":167.9248,"MEAN_ANOMALY":192.2182,"EPHEMERIS_TYPE":0,"CLASSIFICATION_TYPE":"U","NORAD_CAT_ID":58327,"ELEMENT_SET_NO":999,"REV_AT_EPOCH":12964,"BSTAR":0.0005919258,"MEAN_MOTION_DOT":0.00027036,"MEAN_MOTION_DDOT":0},{"OBJECT_NAME":"FLOCK 4Q-13","OBJECT_ID":"2023-174CA","EPOCH":"2026-03-06T05:42:39.080448","MEAN_MOTION":15.46733465,"ECCENTRICITY":0.00075839,"INCLINATION":97.4022,"RA_OF_ASC_NODE":153.4059,"ARG_OF_PERICENTER":162.1816,"MEAN_ANOMALY":197.9701,"EPHEMERIS_TYPE":0,"CLASSIFICATION_TYPE":"U","NORAD_CAT_ID":58328,"ELEMENT_SET_NO":999,"REV_AT_EPOCH":12973,"BSTAR":0.00063985956,"MEAN_MOTION_DOT":0.00032035,"MEAN_MOTION_DDOT":0},{"OBJECT_NAME":"FLOCK 4Q-21","OBJECT_ID":"2023-174CB","EPOCH":"2026-03-06T05:37:17.116896","MEAN_MOTION":15.57001369,"ECCENTRICITY":0.00059303,"INCLINATION":97.3939,"RA_OF_ASC_NODE":156.4344,"ARG_OF_PERICENTER":168.2056,"MEAN_ANOMALY":191.9339,"EPHEMERIS_TYPE":0,"CLASSIFICATION_TYPE":"U","NORAD_CAT_ID":58329,"ELEMENT_SET_NO":999,"REV_AT_EPOCH":12995,"BSTAR":0.00071950854,"MEAN_MOTION_DOT":0.00052112,"MEAN_MOTION_DDOT":0},{"OBJECT_NAME":"FLOCK 4BE-18","OBJECT_ID":"2024-149N","EPOCH":"2026-03-06T05:30:42.730272","MEAN_MOTION":15.38107795,"ECCENTRICITY":0.00031334,"INCLINATION":97.3778,"RA_OF_ASC_NODE":148.1398,"ARG_OF_PERICENTER":255.7322,"MEAN_ANOMALY":104.3575,"EPHEMERIS_TYPE":0,"CLASSIFICATION_TYPE":"U","NORAD_CAT_ID":60480,"ELEMENT_SET_NO":999,"REV_AT_EPOCH":8646,"BSTAR":0.00059182361,"MEAN_MOTION_DOT":0.00022157,"MEAN_MOTION_DDOT":0},{"OBJECT_NAME":"FLOCK 4BE-7","OBJECT_ID":"2024-149P","EPOCH":"2026-03-06T04:11:13.585920","MEAN_MOTION":15.36127526,"ECCENTRICITY":0.00020931,"INCLINATION":97.3809,"RA_OF_ASC_NODE":147.681,"ARG_OF_PERICENTER":246.3206,"MEAN_ANOMALY":113.7819,"EPHEMERIS_TYPE":0,"CLASSIFICATION_TYPE":"U","NORAD_CAT_ID":60481,"ELEMENT_SET_NO":999,"REV_AT_EPOCH":8641,"BSTAR":0.00050198532,"MEAN_MOTION_DOT":0.00017607,"MEAN_MOTION_DDOT":0},{"OBJECT_NAME":"FLOCK 4BE-26","OBJECT_ID":"2024-149S","EPOCH":"2026-03-06T04:35:31.581600","MEAN_MOTION":15.43486631,"ECCENTRICITY":0.00059693,"INCLINATION":97.377,"RA_OF_ASC_NODE":147.995,"ARG_OF_PERICENTER":250.6553,"MEAN_ANOMALY":109.405,"EPHEMERIS_TYPE":0,"CLASSIFICATION_TYPE":"U","NORAD_CAT_ID":60484,"ELEMENT_SET_NO":999,"REV_AT_EPOCH":8645,"BSTAR":0.0020171689,"MEAN_MOTION_DOT":0.00091267,"MEAN_MOTION_DDOT":0},{"OBJECT_NAME":"FLOCK 4BE-36","OBJECT_ID":"2024-149U","EPOCH":"2026-03-06T04:41:45.871584","MEAN_MOTION":15.38968749,"ECCENTRICITY":0.00028023,"INCLINATION":97.3789,"RA_OF_ASC_NODE":148.6469,"ARG_OF_PERICENTER":269.8244,"MEAN_ANOMALY":90.2681,"EPHEMERIS_TYPE":0,"CLASSIFICATION_TYPE":"U","NORAD_CAT_ID":60486,"ELEMENT_SET_NO":999,"REV_AT_EPOCH":8649,"BSTAR":0.00057514912,"MEAN_MOTION_DOT":0.00022142,"MEAN_MOTION_DDOT":0},{"OBJECT_NAME":"FLOCK 4BE-25","OBJECT_ID":"2024-149V","EPOCH":"2026-03-06T04:30:19.932480","MEAN_MOTION":15.35857462,"ECCENTRICITY":0.0001375,"INCLINATION":97.3848,"RA_OF_ASC_NODE":147.8434,"ARG_OF_PERICENTER":233.2605,"MEAN_ANOMALY":126.8513,"EPHEMERIS_TYPE":0,"CLASSIFICATION_TYPE":"U","NORAD_CAT_ID":60487,"ELEMENT_SET_NO":999,"REV_AT_EPOCH":8641,"BSTAR":0.00046165334,"MEAN_MOTION_DOT":0.00016043,"MEAN_MOTION_DDOT":0},{"OBJECT_NAME":"FLOCK 4BE-31","OBJECT_ID":"2024-149W","EPOCH":"2026-03-06T03:59:38.961024","MEAN_MOTION":15.39754394,"ECCENTRICITY":0.00017529,"INCLINATION":97.3845,"RA_OF_ASC_NODE":149.2333,"ARG_OF_PERICENTER":262.7786,"MEAN_ANOMALY":97.326,"EPHEMERIS_TYPE":0,"CLASSIFICATION_TYPE":"U","NORAD_CAT_ID":60488,"ELEMENT_SET_NO":999,"REV_AT_EPOCH":8650,"BSTAR":0.00059778572,"MEAN_MOTION_DOT":0.00023619,"MEAN_MOTION_DDOT":0},{"OBJECT_NAME":"FLOCK 4BE-20","OBJECT_ID":"2024-149X","EPOCH":"2026-03-06T03:56:34.670688","MEAN_MOTION":15.35138508,"ECCENTRICITY":0.00024962,"INCLINATION":97.3751,"RA_OF_ASC_NODE":146.9572,"ARG_OF_PERICENTER":261.0066,"MEAN_ANOMALY":99.0895,"EPHEMERIS_TYPE":0,"CLASSIFICATION_TYPE":"U","NORAD_CAT_ID":60489,"ELEMENT_SET_NO":999,"REV_AT_EPOCH":8639,"BSTAR":0.00046587304,"MEAN_MOTION_DOT":0.00015823,"MEAN_MOTION_DDOT":0},{"OBJECT_NAME":"FLOCK 4BE-23","OBJECT_ID":"2024-149Y","EPOCH":"2026-03-06T04:41:19.625856","MEAN_MOTION":15.34781487,"ECCENTRICITY":0.00021333,"INCLINATION":97.3831,"RA_OF_ASC_NODE":147.308,"ARG_OF_PERICENTER":273.042,"MEAN_ANOMALY":87.0579,"EPHEMERIS_TYPE":0,"CLASSIFICATION_TYPE":"U","NORAD_CAT_ID":60490,"ELEMENT_SET_NO":999,"REV_AT_EPOCH":8638,"BSTAR":0.00049307734,"MEAN_MOTION_DOT":0.00016564,"MEAN_MOTION_DDOT":0},{"OBJECT_NAME":"FLOCK 4BE-15","OBJECT_ID":"2024-149Z","EPOCH":"2026-03-06T04:50:04.652736","MEAN_MOTION":15.39726736,"ECCENTRICITY":0.00030358,"INCLINATION":97.3769,"RA_OF_ASC_NODE":148.3429,"ARG_OF_PERICENTER":318.7702,"MEAN_ANOMALY":41.3314,"EPHEMERIS_TYPE":0,"CLASSIFICATION_TYPE":"U","NORAD_CAT_ID":60491,"ELEMENT_SET_NO":999,"REV_AT_EPOCH":8648,"BSTAR":0.0020074769,"MEAN_MOTION_DOT":0.00080034,"MEAN_MOTION_DDOT":0},{"OBJECT_NAME":"FLOCK 4BE-17","OBJECT_ID":"2024-149AA","EPOCH":"2026-03-06T04:16:26.755680","MEAN_MOTION":15.36492634,"ECCENTRICITY":0.00021684,"INCLINATION":97.3821,"RA_OF_ASC_NODE":147.9613,"ARG_OF_PERICENTER":250.0725,"MEAN_ANOMALY":110.0286,"EPHEMERIS_TYPE":0,"CLASSIFICATION_TYPE":"U","NORAD_CAT_ID":60492,"ELEMENT_SET_NO":999,"REV_AT_EPOCH":8642,"BSTAR":0.00051094468,"MEAN_MOTION_DOT":0.00018135,"MEAN_MOTION_DDOT":0}]
